{"spkid": "54147407", "covariance": {"labels": ["e", "q", "tp", "node", "peri", "i"], "elements": [{"label": "e", "title": "eccentricity", "value": ".5238405049742194", "units": null, "name": "e", "sigma": 2.12533767358741e-08}, {"label": "q", "units": "au", "title": "perihelion distance", "value": "1.009002041422946", "sigma": 5.5866440428641e-08, "name": "q"}, {"label": "tp", "value": "2459346.022695995168", "title": "time of perihelion passage", "units": "TDB", "name": "tp", "sigma": 1.95566933654505e-05}, {"label": "node", "title": "longitude of the ascending node", "value": "69.61906117397662", "units": "deg", "name": "om", "sigma": 3.05275832255761e-06}, {"title": "argument of perihelion", "value": "154.272289115669", "units": "deg", "sigma": 2.43101075988943e-05, "name": "w", "label": "peri"}, {"label": "i", "sigma": 1.07600526704872e-05, "name": "i", "units": "deg", "title": "inclination", "value": "28.6575084579362"}], "data": [["4.517060226769964E-16", "-1.089920494793155E-15", "-3.036854454059462E-13", "-3.272804339982872E-15", "-3.684964099370351E-13", "-3.255768173968656E-14"], ["-1.089920494793155E-15", "3.121059166166896E-15", "9.104479318255622E-13", "-3.741305388153366E-15", "1.115427573001131E-12", "1.940859577049491E-13"], ["-3.036854454059462E-13", "9.104479318255622E-13", "3.824642553902563E-10", "4.025181294759778E-12", "4.705812384019519E-10", "2.919244756742085E-11"], ["-3.272804339982872E-15", "-3.741305388153366E-15", "4.025181294759778E-12", "9.31933337594477E-12", "-3.697805153725309E-12", "-1.51400851324605E-11"], ["-3.684964099370351E-13", "1.115427573001131E-12", "4.705812384019519E-10", "-3.697805153725309E-12", "5.909813314698176E-10", "4.26009702470612E-11"], ["-3.255768173968656E-14", "1.940859577049491E-13", "2.919244756742085E-11", "-1.51400851324605E-11", "4.26009702470612E-11", "1.157787334716595E-10"]], "epoch": "2459906.5"}, "elements": [{"label": "e", "sigma": "2.1842E-8", "name": "e", "value": ".5243827897338454", "title": "eccentricity", "units": null}, {"units": "au", "value": "2.11810003644671", "title": "semi-major axis", "sigma": "4.881E-8", "name": "a", "label": "a"}, {"value": "1.007404830399425", "title": "perihelion distance", "units": "au", "name": "q", "sigma": "5.7717E-8", "label": "q"}, {"label": "i", "sigma": "1.0766E-5", "name": "i", "units": "deg", "title": "inclination; angle with respect to x-y ecliptic plane", "value": "28.67793624071905"}, {"label": "node", "units": "deg", "value": "69.61037598696302", "title": "longitude of the ascending node", "name": "om", "sigma": "3.053E-6"}, {"label": "peri", "title": "argument of perihelion", "value": "154.2733913609441", "units": "deg", "name": "w", "sigma": "2.4225E-5"}, {"units": "deg", "title": "mean anomaly", "value": "232.8676616603044", "name": "ma", "sigma": "2.4612E-5", "label": "M"}, {"sigma": "9.0533E-5", "name": "tp", "units": "TDB", "title": "time of perihelion passage", "value": "2461598.123151067911", "label": "tp"}, {"sigma": "3.892E-5", "name": "per", "units": "d", "value": "1125.947467448987", "title": "sidereal orbital period", "label": "period"}, {"label": "n", "value": ".3197307249295007", "title": "mean motion", "units": "deg/d", "sigma": "1.1052E-8", "name": "n"}, {"label": "Q", "sigma": "7.4405E-8", "name": "ad", "units": "au", "value": "3.228795242493996", "title": "aphelion distance"}], "epoch": "2461200.5"}